NORAD_CAT_ID,OBJECT_NAME,OBJECT_TYPE,EPOCH,MEAN_MOTION,ECCENTRICITY,INCLINATION,RA_OF_ASC_NODE,ARG_OF_PERICENTER,MEAN_ANOMALY,BSTAR,MEAN_MOTION_DOT,MEAN_MOTION_DDOT,TLE_LINE0,TLE_LINE1,TLE_LINE2,SEMIMAJOR_AXIS,PERIOD,APOGEE,PERIGEE,DECAYED
53012.0,STARLINK-4271,PAYLOAD,2022-08-04 22:00:00,15.73166002,0.0002191999999999,53.2184,239.1795,24.2402,13.0176,0.00052035,0.00072941,0.0,0 STARLINK-4271,1 53012U 22076AC  22216.91667824  .00072941  00000-0  52035-3 0  9995,2 53012  53.2184 239.1795 0002192  24.2402  13.0176 15.73166002  1303,6727.9919999999975,91.535,351.332,348.38199999999995,0.0
53012.0,STARLINK-4271,PAYLOAD,2022-08-05 06:00:02,15.73253565,0.0002298,53.2185,237.5314,22.267,103.9706,-0.00077705,-0.00108543,0.0,0 STARLINK-4271,1 53012U 22076AC  22217.25002315 -.00108543  00000-0 -77705-3 0  9992,2 53012  53.2185 237.5314 0002298  22.2670 103.9706 15.73253565  5016,6727.7419999999975,91.53,351.153,348.061,0.0
53012.0,STARLINK-4271,PAYLOAD,2022-08-05 14:00:01,15.73168223,0.000237,53.2182,235.8827,17.2068,197.9821,0.00028384,0.0003935,0.0,0 STARLINK-4271,1 53012U 22076AC  22217.58335648  .00039350  00000-0  28384-3 0  9992,2 53012  53.2182 235.8827 0002370  17.2068 197.9821 15.73168223  1304,6727.986,91.535,351.445,348.256,0.0
53012.0,STARLINK-4271,PAYLOAD,2022-08-05 22:00:00,15.73167951,0.0002165999999999,53.2186,234.2313,19.9464,284.0944,0.00057878,0.00081289,0.0,0 STARLINK-4271,1 53012U 22076AC  22217.91667824  .00081289  00000-0  57878-3 0  9991,2 53012  53.2186 234.2313 0002166  19.9464 284.0944 15.73167951  1304,6727.986999999999,91.535,351.309,348.394,0.0
53012.0,STARLINK-4271,PAYLOAD,2022-08-06 05:51:41,15.73182306,0.0004393,53.2187,232.6126,4.7332,355.3729,9.9107e-06,7.65e-06,0.0,0 STARLINK-4271,1 53012U 22076AC  22218.24422518  .00000765  00000-0  99107-5 0  9990,2 53012  53.2187 232.6126 0004393   4.7332 355.3729 15.73182306  5172,6727.946,91.534,352.766,346.855,0.0
53012.0,STARLINK-4271,PAYLOAD,2022-08-06 14:00:01,15.73185426,0.0002365,53.2185,230.9346,15.008,106.8073,0.00019855,0.0002731999999999,0.0,0 STARLINK-4271,1 53012U 22076AC  22218.58334491  .00027320  00000-0  19855-3 0  9995,2 53012  53.2185 230.9346 0002365  15.0080 106.8073 15.73185426  1305,6727.937,91.534,351.39300000000014,348.211,0.0
53012.0,STARLINK-4271,PAYLOAD,2022-08-06 22:00:00,15.73183451,0.0002104,53.2183,229.2834,17.3531,193.3922,0.00055309,0.00077671,0.0,0 STARLINK-4271,1 53012U 22076AC  22218.91667824  .00077671  00000-0  55309-3 0  9999,2 53012  53.2183 229.2834 0002104  17.3531 193.3922 15.73183451  1303,6727.941999999999,91.534,351.223,348.392,0.0
53012.0,STARLINK-4271,PAYLOAD,2022-08-07 14:00:01,15.73240698,0.0002446,53.2179,225.9866,20.7437,7.9097,-0.0003597,-0.00050894,0.0,0 STARLINK-4271,1 53012U 22076AC  22219.58334491 -.00050894  00000-0 -35970-3 0  9996,2 53012  53.2179 225.9866 0002446  20.7437   7.9097 15.73240698  1308,6727.779,91.531,351.29,347.999,0.0
53012.0,STARLINK-4271,PAYLOAD,2022-08-07 22:00:00,15.73217806,0.0002292,53.2182,224.3352,28.9251,88.6955,0.00012465,0.00016922,0.0,0 STARLINK-4271,1 53012U 22076AC  22219.91667824  .00016922  00000-0  12465-3 0  9998,2 53012  53.2182 224.3352 0002292  28.9251  88.6955 15.73217806  1302,6727.844,91.532,351.251,348.167,0.0
53012.0,STARLINK-4271,PAYLOAD,2022-08-08 14:00:01,15.732903899999998,0.0002516,53.2179,221.0379,27.6498,267.9827,-0.0004475,-0.00063209,0.0,0 STARLINK-4271,1 53012U 22076AC  22220.58335648 -.00063209  00000-0 -44750-3 0  9993,2 53012  53.2179 221.0379 0002516  27.6498 267.9827 15.73290390  5548,6727.637,91.528,351.195,347.81,0.0
53012.0,STARLINK-4271,PAYLOAD,2022-08-08 17:19:22,15.73260829,0.0002420999999999,53.2185,220.352,31.4398,328.6766,0.00011375,0.00015414,0.0,0 STARLINK-4271,1 53012U 22076AC  22220.72178417  .00015414  00000-0  11375-3 0  9998,2 53012  53.2185 220.3520 0002421  31.4398 328.6766 15.73260829  5565,6727.722,91.53,351.216,347.958,0.0
53012.0,STARLINK-4271,PAYLOAD,2022-08-08 22:00:00,15.73224383,0.000217,53.2178,219.3867,26.3432,358.2492,-0.00013448,-0.00019473,0.0,0 STARLINK-4271,1 53012U 22076AC  22220.91667824 -.00019473  00000-0 -13448-3 0  9998,2 53012  53.2178 219.3867 0002170  26.3432 358.2492 15.73224383  1300,6727.826,91.532,351.151,348.231,0.0
53012.0,STARLINK-4271,PAYLOAD,2022-08-09 06:00:00,15.73200465,0.0002328,53.2175,217.7393,21.1763,92.3534,-0.00055121,-0.00077286,0.0,0 STARLINK-4271,1 53012U 22076AC  22221.25001157 -.00077286  00000-0 -55121-3 0  9997,2 53012  53.2175 217.7393 0002328  21.1763  92.3534 15.73200465  5647,6727.894,91.533,351.325,348.1930000000001,0.0
53012.0,STARLINK-4271,PAYLOAD,2022-08-09 14:00:01,15.73139197,0.0002381,53.2172,216.0897,22.232,180.1823,-3.993e-05,-6.207e-05,0.0,0 STARLINK-4271,1 53012U 22076AC  22221.58334491 -.00006207  00000-0 -39930-4 0  9999,2 53012  53.2172 216.0897 0002381  22.2320 180.1823 15.73139197  1304,6728.069,91.537,351.535,348.332,0.0
53012.0,STARLINK-4271,PAYLOAD,2022-08-09 22:00:00,15.73122983,0.0002179,53.2176,214.4386,26.267,264.9973,0.00058456,0.00081955,0.0,0 STARLINK-4271,1 53012U 22076AC  22221.91667824  .00081955  00000-0  58456-3 0  9999,2 53012  53.2176 214.4386 0002179  26.2670 264.9973 15.73122983  5755,6728.115,91.538,351.446,348.514,0.0
53012.0,STARLINK-4271,PAYLOAD,2022-08-10 14:00:01,15.73226444,0.0002419,53.2173,211.1385,25.7175,83.339,4.971e-05,6.368e-05,0.0,0 STARLINK-4271,1 53012U 22076AC  22222.58334491  .00006368  00000-0  49710-4 0  9993,2 53012  53.2173 211.1385 0002419  25.7175  83.3390 15.73226444  1306,6727.82,91.532,351.31199999999984,348.057,0.0
53012.0,STARLINK-4271,PAYLOAD,2022-08-10 17:07:18,15.73244006,0.0002281,53.2178,210.497,25.5226,100.6174,-0.00027462,-0.00039061,0.0,0 STARLINK-4271,1 53012U 22076AC  22222.71341435 -.00039061  00000-0 -27462-3 0  9991,2 53012  53.2178 210.4970 0002281  25.5226 100.6174 15.73244006  5878,6727.77,91.531,351.1690000000001,348.1,0.0
53012.0,STARLINK-4271,PAYLOAD,2022-08-10 22:00:00,15.73215069,0.0002165999999999,53.2176,209.4905,26.1327,171.8904,2.4106e-05,2.765e-05,0.0,0 STARLINK-4271,1 53012U 22076AC  22222.91667824  .00002765  00000-0  24106-4 0  9998,2 53012  53.2176 209.4905 0002166  26.1327 171.8904 15.73215069  1305,6727.852,91.532,351.1740000000001,348.26,0.0
53012.0,STARLINK-4271,PAYLOAD,2022-08-11 14:00:01,15.73192643,0.000223,53.2173,206.193,17.5935,358.305,4.3594e-05,5.499e-05,0.0,0 STARLINK-4271,1 53012U 22076AC  22223.58334491  .00005499  00000-0  43594-4 0  9992,2 53012  53.2173 206.1930 0002230  17.5935 358.3050 15.73192643  1301,6727.916,91.534,351.281,348.281,0.0
53012.0,STARLINK-4271,PAYLOAD,2022-08-11 22:00:00,15.73192151,0.0002025,53.2178,204.5421,20.7063,84.102,0.00038492,0.00053731,0.0,0 STARLINK-4271,1 53012U 22076AC  22223.91667824  .00053731  00000-0  38492-3 0  9990,2 53012  53.2178 204.5421 0002025  20.7063  84.1020 15.73192151  6066,6727.918000000002,91.534,351.145,348.42,0.0
53012.0,STARLINK-4271,PAYLOAD,2022-08-12 14:00:01,15.73242661,0.0002186999999999,53.218,201.2443,14.2569,268.4687,6.5089e-05,8.540000000000003e-05,0.0,0 STARLINK-4271,1 53012U 22076AC  22224.58334491  .00008540  00000-0  65089-4 0  9996,2 53012  53.2180 201.2443 0002187  14.2569 268.4687 15.73242661  6175,6727.774,91.531,351.11,348.167,0.0
53012.0,STARLINK-4271,PAYLOAD,2022-08-12 22:00:01,15.73258905,0.0002026999999999,53.2183,199.5937,19.5399,352.2212,-0.0004974,-0.00070031,0.0,0 STARLINK-4271,1 53012U 22076AC  22224.91668981 -.00070031  00000-0 -49740-3 0  9998,2 53012  53.2183 199.5937 0002027  19.5399 352.2212 15.73258905  1301,6727.727,91.53,350.956,348.22900000000016,0.0
53012.0,STARLINK-4271,PAYLOAD,2022-08-13 06:00:02,15.73356215,0.0002455,53.2173,197.9404,19.7332,80.9564,-0.0040369,-0.00536262,0.0,0 STARLINK-4271,1 53012U 22076AC  22225.25002315 -.00536262  00000-0 -40369-2 0  9999,2 53012  53.2173 197.9404 0002455  19.7332  80.9564 15.73356215  6274,6727.45,91.524,350.966,347.663,0.0
53012.0,STARLINK-4271,PAYLOAD,2022-08-13 14:00:01,15.72972725,0.0002098,53.2177,196.2858,23.8542,165.6689,-0.0037497,-0.00492468,0.0,0 STARLINK-4271,1 53012U 22076AC  22225.58334491 -.00492468  00000-0 -37497-2 0  9995,2 53012  53.2177 196.2858 0002098  23.8542 165.6689 15.72972725  1302,6728.543000000002,91.546,351.82,348.997,0.0
53012.0,STARLINK-4271,PAYLOAD,2022-08-13 22:00:00,15.72636002,0.0001962,53.2175,194.6358,24.4186,253.5744,-0.0085439,-0.01053544,0.0,0 STARLINK-4271,1 53012U 22076AC  22225.91667824 -.01053544  00000-0 -85439-2 0  9999,2 53012  53.2175 194.6358 0001962  24.4186 253.5744 15.72636002  1301,6729.504,91.566,352.689,350.048,0.0
53012.0,STARLINK-4271,PAYLOAD,2022-08-14 14:00:01,15.71118643,0.0002399999999999,53.2175,191.352,10.6027,82.0423,-0.0091421,-0.01056454,0.0,0 STARLINK-4271,1 53012U 22076AC  22226.58334491 -.01056454  00000-0 -91421-2 0  9995,2 53012  53.2175 191.3520 0002400  10.6027  82.0423 15.71118643  1309,6733.8359999999975,91.654,357.31699999999995,354.085,0.0
53012.0,STARLINK-4271,PAYLOAD,2022-08-14 22:00:00,15.70357568,0.0002423,53.2178,189.7116,11.1538,167.4491,-0.0094042999999999,-0.01052767,0.0,0 STARLINK-4271,1 53012U 22076AC  22226.91667824 -.01052767  00000-0 -94043-2 0  9997,2 53012  53.2178 189.7116 0002423  11.1538 167.4491 15.70357568  1305,6736.011,91.699,359.5080000000001,356.244,0.0
53012.0,STARLINK-4271,PAYLOAD,2022-08-15 14:00:01,15.68834427,4.07e-05,53.2175,186.4386,12.5962,335.1853,-0.0099534,-0.01045435,0.0,0 STARLINK-4271,1 53012U 22076AC  22227.58334491 -.01045435  00000-0 -99534-2 0  9996,2 53012  53.2175 186.4386 0000407  12.5962 335.1853 15.68834427  1308,6740.37,91.788,362.51,361.961,0.0
53012.0,STARLINK-4271,PAYLOAD,2022-08-15 16:00:00,15.68651001,8.06e-05,53.2175,186.0295,33.9046,64.7654,-0.010142,-0.01056104,0.0,0 STARLINK-4271,1 53012U 22076AC  22227.66667824 -.01056104  00000-0 -10142-1 0  9996,2 53012  53.2175 186.0295 0000806  33.9046  64.7654 15.68651001  6658,6740.896,91.799,363.304,362.218,0.0
